[{"OBJECT_NAME":"ONEWEB-0255","OBJECT_ID":"2021-060G","EPOCH":"2025-08-09T10:57:33.378912","MEAN_MOTION":13.16593442,"ECCENTRICITY":0.0001948,"INCLINATION":87.9032,"RA_OF_ASC_NODE":290.9307,"ARG_OF_PERICENTER":89.0053,"MEAN_ANOMALY":271.1301,"EPHEMERIS_TYPE":0,"CLASSIFICATION_TYPE":"U","NORAD_CAT_ID":48973,"ELEMENT_SET_NO":999,"REV_AT_EPOCH":19864,"BSTAR":-0.00058196,"MEAN_MOTION_DOT":-2.1e-6,"MEAN_MOTION_DDOT":0},{"OBJECT_NAME":"ONEWEB-0256","OBJECT_ID":"2021-060H","EPOCH":"2025-08-09T13:24:37.164672","MEAN_MOTION":13.16593119,"ECCENTRICITY":0.000214,"INCLINATION":87.903,"RA_OF_ASC_NODE":290.921,"ARG_OF_PERICENTER":100.1821,"MEAN_ANOMALY":259.9551,"EPHEMERIS_TYPE":0,"CLASSIFICATION_TYPE":"U","NORAD_CAT_ID":48974,"ELEMENT_SET_NO":999,"REV_AT_EPOCH":19862,"BSTAR":4.509e-5,"MEAN_MOTION_DOT":3.0e-7,"MEAN_MOTION_DDOT":0},{"OBJECT_NAME":"ONEWEB-0257","OBJECT_ID":"2021-060J","EPOCH":"2025-08-09T14:11:21.192000","MEAN_MOTION":13.1659293,"ECCENTRICITY":0.0002093,"INCLINATION":87.9037,"RA_OF_ASC_NODE":290.8817,"ARG_OF_PERICENTER":91.0862,"MEAN_ANOMALY":269.0509,"EPHEMERIS_TYPE":0,"CLASSIFICATION_TYPE":"U","NORAD_CAT_ID":48975,"ELEMENT_SET_NO":999,"REV_AT_EPOCH":19858,"BSTAR":-1.1834e-6,"MEAN_MOTION_DOT":1.2e-7,"MEAN_MOTION_DDOT":0},{"OBJECT_NAME":"ONEWEB-0258","OBJECT_ID":"2021-060K","EPOCH":"2025-08-09T14:13:39.251424","MEAN_MOTION":13.165934,"ECCENTRICITY":0.0001915,"INCLINATION":87.9033,"RA_OF_ASC_NODE":290.9058,"ARG_OF_PERICENTER":97.0718,"MEAN_ANOMALY":263.0631,"EPHEMERIS_TYPE":0,"CLASSIFICATION_TYPE":"U","NORAD_CAT_ID":48976,"ELEMENT_SET_NO":999,"REV_AT_EPOCH":19859,"BSTAR":-0.00015019,"MEAN_MOTION_DOT":-4.5e-7,"MEAN_MOTION_DDOT":0},{"OBJECT_NAME":"ONEWEB-0259","OBJECT_ID":"2021-060L","EPOCH":"2025-08-09T14:04:30.774720","MEAN_MOTION":13.16593413,"ECCENTRICITY":0.0001918,"INCLINATION":87.9036,"RA_OF_ASC_NODE":290.8917,"ARG_OF_PERICENTER":92.3721,"MEAN_ANOMALY":267.7629,"EPHEMERIS_TYPE":0,"CLASSIFICATION_TYPE":"U","NORAD_CAT_ID":48977,"ELEMENT_SET_NO":999,"REV_AT_EPOCH":19862,"BSTAR":0.00020734,"MEAN_MOTION_DOT":9.2e-7,"MEAN_MOTION_DDOT":0},{"OBJECT_NAME":"ONEWEB-0260","OBJECT_ID":"2021-060M","EPOCH":"2025-08-09T13:51:58.853664","MEAN_MOTION":13.16593675,"ECCENTRICITY":0.0002511,"INCLINATION":87.9032,"RA_OF_ASC_NODE":290.9189,"ARG_OF_PERICENTER":98.4282,"MEAN_ANOMALY":261.7134,"EPHEMERIS_TYPE":0,"CLASSIFICATION_TYPE":"U","NORAD_CAT_ID":48978,"ELEMENT_SET_NO":999,"REV_AT_EPOCH":19860,"BSTAR":0.00021452,"MEAN_MOTION_DOT":9.5e-7,"MEAN_MOTION_DDOT":0},{"OBJECT_NAME":"ONEWEB-0261","OBJECT_ID":"2021-060N","EPOCH":"2025-08-09T11:19:13.484640","MEAN_MOTION":13.165949,"ECCENTRICITY":0.0002265,"INCLINATION":87.903,"RA_OF_ASC_NODE":290.9416,"ARG_OF_PERICENTER":86.8588,"MEAN_ANOMALY":273.2802,"EPHEMERIS_TYPE":0,"CLASSIFICATION_TYPE":"U","NORAD_CAT_ID":48979,"ELEMENT_SET_NO":999,"REV_AT_EPOCH":19864,"BSTAR":0.00023714,"MEAN_MOTION_DOT":1.04e-6,"MEAN_MOTION_DDOT":0},{"OBJECT_NAME":"ONEWEB-0262","OBJECT_ID":"2021-060P","EPOCH":"2025-08-09T12:40:11.137152","MEAN_MOTION":13.16594196,"ECCENTRICITY":0.0001768,"INCLINATION":87.9038,"RA_OF_ASC_NODE":290.8927,"ARG_OF_PERICENTER":89.7003,"MEAN_ANOMALY":270.433,"EPHEMERIS_TYPE":0,"CLASSIFICATION_TYPE":"U","NORAD_CAT_ID":48980,"ELEMENT_SET_NO":999,"REV_AT_EPOCH":19861,"BSTAR":8.6213e-5,"MEAN_MOTION_DOT":4.6e-7,"MEAN_MOTION_DDOT":0},{"OBJECT_NAME":"ONEWEB-0263","OBJECT_ID":"2021-060Q","EPOCH":"2025-08-09T13:25:46.893792","MEAN_MOTION":13.16594936,"ECCENTRICITY":0.0002029,"INCLINATION":87.9032,"RA_OF_ASC_NODE":290.91,"ARG_OF_PERICENTER":83.462,"MEAN_ANOMALY":276.6742,"EPHEMERIS_TYPE":0,"CLASSIFICATION_TYPE":"U","NORAD_CAT_ID":48981,"ELEMENT_SET_NO":999,"REV_AT_EPOCH":19858,"BSTAR":0.00013819,"MEAN_MOTION_DOT":6.6e-7,"MEAN_MOTION_DDOT":0},{"OBJECT_NAME":"ONEWEB-0264","OBJECT_ID":"2021-060R","EPOCH":"2025-08-09T14:19:20.776800","MEAN_MOTION":13.1659327,"ECCENTRICITY":0.0002019,"INCLINATION":87.9031,"RA_OF_ASC_NODE":290.9075,"ARG_OF_PERICENTER":93.4022,"MEAN_ANOMALY":266.734,"EPHEMERIS_TYPE":0,"CLASSIFICATION_TYPE":"U","NORAD_CAT_ID":48982,"ELEMENT_SET_NO":999,"REV_AT_EPOCH":19859,"BSTAR":-0.00010237,"MEAN_MOTION_DOT":-2.6e-7,"MEAN_MOTION_DDOT":0},{"OBJECT_NAME":"ONEWEB-0266","OBJECT_ID":"2021-060T","EPOCH":"2025-08-09T11:11:15.417024","MEAN_MOTION":13.16594129,"ECCENTRICITY":0.0001816,"INCLINATION":87.9036,"RA_OF_ASC_NODE":290.909,"ARG_OF_PERICENTER":98.2766,"MEAN_ANOMALY":261.8571,"EPHEMERIS_TYPE":0,"CLASSIFICATION_TYPE":"U","NORAD_CAT_ID":48984,"ELEMENT_SET_NO":999,"REV_AT_EPOCH":19856,"BSTAR":0.00013777,"MEAN_MOTION_DOT":6.6e-7,"MEAN_MOTION_DDOT":0},{"OBJECT_NAME":"ONEWEB-0267","OBJECT_ID":"2021-060U","EPOCH":"2025-08-09T11:27:12.915648","MEAN_MOTION":13.1659392,"ECCENTRICITY":0.0002143,"INCLINATION":87.9035,"RA_OF_ASC_NODE":290.9093,"ARG_OF_PERICENTER":89.9748,"MEAN_ANOMALY":270.1628,"EPHEMERIS_TYPE":0,"CLASSIFICATION_TYPE":"U","NORAD_CAT_ID":48985,"ELEMENT_SET_NO":999,"REV_AT_EPOCH":19857,"BSTAR":9.4661e-5,"MEAN_MOTION_DOT":4.9e-7,"MEAN_MOTION_DDOT":0},{"OBJECT_NAME":"ONEWEB-0268","OBJECT_ID":"2021-060V","EPOCH":"2025-08-09T14:20:28.138560","MEAN_MOTION":13.16593284,"ECCENTRICITY":0.0002137,"INCLINATION":87.9038,"RA_OF_ASC_NODE":290.8909,"ARG_OF_PERICENTER":96.5392,"MEAN_ANOMALY":263.5983,"EPHEMERIS_TYPE":0,"CLASSIFICATION_TYPE":"U","NORAD_CAT_ID":48986,"ELEMENT_SET_NO":999,"REV_AT_EPOCH":19885,"BSTAR":5.4358e-5,"MEAN_MOTION_DOT":3.4e-7,"MEAN_MOTION_DDOT":0},{"OBJECT_NAME":"ONEWEB-0269","OBJECT_ID":"2021-060W","EPOCH":"2025-08-09T13:53:05.060256","MEAN_MOTION":13.16592693,"ECCENTRICITY":0.0002037,"INCLINATION":87.9032,"RA_OF_ASC_NODE":290.9271,"ARG_OF_PERICENTER":101.386,"MEAN_ANOMALY":258.75,"EPHEMERIS_TYPE":0,"CLASSIFICATION_TYPE":"U","NORAD_CAT_ID":48987,"ELEMENT_SET_NO":999,"REV_AT_EPOCH":19862,"BSTAR":0.00014581,"MEAN_MOTION_DOT":6.9e-7,"MEAN_MOTION_DDOT":0},{"OBJECT_NAME":"ONEWEB-0270","OBJECT_ID":"2021-060X","EPOCH":"2025-08-09T14:18:11.535840","MEAN_MOTION":13.16591894,"ECCENTRICITY":0.0001942,"INCLINATION":87.9033,"RA_OF_ASC_NODE":290.8937,"ARG_OF_PERICENTER":83.2308,"MEAN_ANOMALY":276.9043,"EPHEMERIS_TYPE":0,"CLASSIFICATION_TYPE":"U","NORAD_CAT_ID":48988,"ELEMENT_SET_NO":999,"REV_AT_EPOCH":19866,"BSTAR":-0.00041715,"MEAN_MOTION_DOT":-1.47e-6,"MEAN_MOTION_DDOT":0},{"OBJECT_NAME":"ONEWEB-0271","OBJECT_ID":"2021-060Y","EPOCH":"2025-08-09T13:59:58.139520","MEAN_MOTION":13.16594639,"ECCENTRICITY":0.0002097,"INCLINATION":87.9036,"RA_OF_ASC_NODE":290.8796,"ARG_OF_PERICENTER":89.5086,"MEAN_ANOMALY":270.6285,"EPHEMERIS_TYPE":0,"CLASSIFICATION_TYPE":"U","NORAD_CAT_ID":48989,"ELEMENT_SET_NO":999,"REV_AT_EPOCH":19866,"BSTAR":7.751e-5,"MEAN_MOTION_DOT":4.2e-7,"MEAN_MOTION_DDOT":0},{"OBJECT_NAME":"ONEWEB-0272","OBJECT_ID":"2021-060Z","EPOCH":"2025-08-09T12:42:26.198496","MEAN_MOTION":13.16592719,"ECCENTRICITY":0.0002222,"INCLINATION":87.9034,"RA_OF_ASC_NODE":290.9201,"ARG_OF_PERICENTER":91.1897,"MEAN_ANOMALY":268.9488,"EPHEMERIS_TYPE":0,"CLASSIFICATION_TYPE":"U","NORAD_CAT_ID":48990,"ELEMENT_SET_NO":999,"REV_AT_EPOCH":19860,"BSTAR":-0.00017239,"MEAN_MOTION_DOT":-5.3e-7,"MEAN_MOTION_DDOT":0}]
