ONEWEB-0255             
1 48973U 21060G   25221.45663633 -.00000210  00000+0 -58196-3 0  9994
2 48973  87.9032 290.9307 0001948  89.0053 271.1301 13.16593442198640
ONEWEB-0256             
1 48974U 21060H   25221.55876348  .00000030  00000+0  45090-4 0  9993
2 48974  87.9030 290.9210 0002140 100.1821 259.9551 13.16593119198625
ONEWEB-0257             
1 48975U 21060J   25221.59121750  .00000012  00000+0 -11834-5 0  9999
2 48975  87.9037 290.8817 0002093  91.0862 269.0509 13.16592930198585
ONEWEB-0258             
1 48976U 21060K   25221.59281541 -.00000045  00000+0 -15019-3 0  9999
2 48976  87.9033 290.9058 0001915  97.0718 263.0631 13.16593400198592
ONEWEB-0259             
1 48977U 21060L   25221.58646730  .00000092  00000+0  20734-3 0  9994
2 48977  87.9036 290.8917 0001918  92.3721 267.7629 13.16593413198620
ONEWEB-0260             
1 48978U 21060M   25221.57776451  .00000095  00000+0  21452-3 0  9999
2 48978  87.9032 290.9189 0002511  98.4282 261.7134 13.16593675198601
ONEWEB-0261             
1 48979U 21060N   25221.47168385  .00000104  00000+0  23714-3 0  9994
2 48979  87.9030 290.9416 0002265  86.8588 273.2802 13.16594900198645
ONEWEB-0262             
1 48980U 21060P   25221.52790668  .00000046  00000+0  86213-4 0  9996
2 48980  87.9038 290.8927 0001768  89.7003 270.4330 13.16594196198611
ONEWEB-0263             
1 48981U 21060Q   25221.55957053  .00000066  00000+0  13819-3 0  9996
2 48981  87.9032 290.9100 0002029  83.4620 276.6742 13.16594936198580
ONEWEB-0264             
1 48982U 21060R   25221.59676825 -.00000026  00000+0 -10237-3 0  9995
2 48982  87.9031 290.9075 0002019  93.4022 266.7340 13.16593270198592
ONEWEB-0266             
1 48984U 21060T   25221.46615066  .00000066  00000+0  13777-3 0  9997
2 48984  87.9036 290.9090 0001816  98.2766 261.8571 13.16594129198561
ONEWEB-0267             
1 48985U 21060U   25221.47723282  .00000049  00000+0  94661-4 0  9992
2 48985  87.9035 290.9093 0002143  89.9748 270.1628 13.16593920198570
ONEWEB-0268             
1 48986U 21060V   25221.59754790  .00000034  00000+0  54358-4 0  9997
2 48986  87.9038 290.8909 0002137  96.5392 263.5983 13.16593284198855
ONEWEB-0269             
1 48987U 21060W   25221.57853079  .00000069  00000+0  14581-3 0  9997
2 48987  87.9032 290.9271 0002037 101.3860 258.7500 13.16592693198626
ONEWEB-0270             
1 48988U 21060X   25221.59596685 -.00000147  00000+0 -41715-3 0  9995
2 48988  87.9033 290.8937 0001942  83.2308 276.9043 13.16591894198665
ONEWEB-0271             
1 48989U 21060Y   25221.58331180  .00000042  00000+0  77510-4 0  9997
2 48989  87.9036 290.8796 0002097  89.5086 270.6285 13.16594639198665
ONEWEB-0272             
1 48990U 21060Z   25221.52946989 -.00000053  00000+0 -17239-3 0  9997
2 48990  87.9034 290.9201 0002222  91.1897 268.9488 13.16592719198602
